NORAD_CAT_ID,OBJECT_NAME,OBJECT_TYPE,EPOCH,MEAN_MOTION,ECCENTRICITY,INCLINATION,RA_OF_ASC_NODE,ARG_OF_PERICENTER,MEAN_ANOMALY,BSTAR,MEAN_MOTION_DOT,MEAN_MOTION_DDOT,TLE_LINE0,TLE_LINE1,TLE_LINE2,SEMIMAJOR_AXIS,PERIOD,APOGEE,PERIGEE,DECAYED
54807.0,STARLINK-5410,PAYLOAD,2023-09-08 02:23:06,15.08832597,0.0001507,53.2172,170.0191,97.4195,262.6969,0.00019225,2.772e-05,0.0,0 STARLINK-5410,1 54807U 22175BB  23251.09937508  .00002772  00000-0  19225-3 0  9995,2 54807  53.2172 170.0191 0001507  97.4195 262.6969 15.08832597 40050,6917.903,95.438,540.811,538.725,0.0
54807.0,STARLINK-5410,PAYLOAD,2023-09-08 18:16:57,15.08837066,0.0001311,53.2178,167.0477,86.2917,273.8225,5.7182e-05,6.22e-06,0.0,0 STARLINK-5410,1 54807U 22175BB  23251.76177761  .00000622  00000-0  57182-4 0  9993,2 54807  53.2178 167.0477 0001311  86.2917 273.8225 15.08837066 42316,6917.889,95.438,540.661,538.847,0.0
54807.0,STARLINK-5410,PAYLOAD,2023-09-09 11:46:11,15.08845149,0.000135,53.2171,163.7763,86.3872,273.7275,7.5543e-05,9.15e-06,0.0,0 STARLINK-5410,1 54807U 22175BB  23252.49041203  .00000915  00000-0  75543-4 0  9991,2 54807  53.2171 163.7763 0001350  86.3872 273.7275 15.08845149 42421,6917.865,95.437,540.664,538.796,0.0
54807.0,STARLINK-5410,PAYLOAD,2023-09-10 03:40:02,15.08848253,0.0001421,53.2168,160.8013,97.153,262.9624,7.8191e-05,9.57e-06,0.0,0 STARLINK-5410,1 54807U 22175BB  23253.15280874  .00000957  00000-0  78191-4 0  9992,2 54807  53.2168 160.8013 0001421  97.1530 262.9624 15.08848253 42521,6917.855,95.437,540.703,538.737,0.0
54807.0,STARLINK-5410,PAYLOAD,2023-09-11 00:20:04,15.08836245,0.0001447,53.2167,156.9359,99.29,260.8255,-2.5917e-05,-7e-06,0.0,0 STARLINK-5410,1 54807U 22175BB  23254.01394173 -.00000700  00000-0 -25917-4 0  9992,2 54807  53.2167 156.9359 0001447  99.2900 260.8255 15.08836245 40490,6917.892,95.438,540.758,538.756,0.0
54807.0,STARLINK-5410,PAYLOAD,2023-09-11 03:30:50,15.08837875,0.0001388,53.2164,156.3403,94.9917,265.1234,-1.4301e-05,-5.16e-06,0.0,0 STARLINK-5410,1 54807U 22175BB  23254.14642070 -.00000516  00000-0 -14301-4 0  9998,2 54807  53.2164 156.3403 0001388  94.9917 265.1234 15.08837875 42672,6917.887,95.438,540.712,538.792,0.0
54807.0,STARLINK-5410,PAYLOAD,2023-09-11 22:35:27,15.08843434,0.0001397,53.2164,152.7716,96.3083,263.8069,8.1179e-05,1.004e-05,0.0,0 STARLINK-5410,1 54807U 22175BB  23254.94129531  .00001004  00000-0  81179-4 0  9996,2 54807  53.2164 152.7716 0001397  96.3083 263.8069 15.08843434 40632,6917.87,95.437,540.701,538.768,0.0
54807.0,STARLINK-5410,PAYLOAD,2023-09-12 17:40:05,15.08838853,0.000124,53.2158,149.2038,87.4738,272.6396,8.9512e-05,1.137e-05,0.0,0 STARLINK-5410,1 54807U 22175BB  23255.73617977  .00001137  00000-0  89512-4 0  9996,2 54807  53.2158 149.2038 0001240  87.4738 272.6396 15.08838853 40751,6917.884,95.438,540.607,538.891,0.0
54807.0,STARLINK-5410,PAYLOAD,2023-09-12 20:50:52,15.08838452,0.000121,53.2167,148.6115,88.0501,272.063,0.00011664,1.569e-05,0.0,0 STARLINK-5410,1 54807U 22175BB  23255.86865969  .00001569  00000-0  11664-3 0  9997,2 54807  53.2167 148.6115 0001210  88.0501 272.0630 15.08838452 42934,6917.885,95.438,540.587,538.913,0.0
54807.0,STARLINK-5410,PAYLOAD,2023-09-13 00:01:37,15.08847338,0.0001358,53.2162,148.0146,109.0311,251.0828,0.000157,2.212e-05,0.0,0 STARLINK-5410,1 54807U 22175BB  23256.00113269  .00002212  00000-0  15700-3 0  9994,2 54807  53.2162 148.0146 0001358 109.0311 251.0828 15.08847338 40794,6917.858,95.437,540.662,538.784,0.0
54807.0,STARLINK-5410,PAYLOAD,2023-09-13 20:41:38,15.08846922,0.0001598,53.2177,144.1536,121.6294,238.4854,3.7976e-05,3.17e-06,0.0,0 STARLINK-5410,1 54807U 22175BB  23256.86225438  .00000317  00000-0  37976-4 0  9994,2 54807  53.2177 144.1536 0001598 121.6294 238.4854 15.08846922 43087,6917.859,95.437,540.83,538.619,0.0
54807.0,STARLINK-5410,PAYLOAD,2023-09-14 01:27:47,15.08848749,0.0001204,53.2168,143.2572,88.4248,271.6882,8.8689e-05,1.124e-05,0.0,0 STARLINK-5410,1 54807U 22175BB  23257.06097119  .00001124  00000-0  88689-4 0  9994,2 54807  53.2168 143.2572 0001204  88.4248 271.6882 15.08848749 40952,6917.854,95.437,540.552,538.886,0.0
54807.0,STARLINK-5410,PAYLOAD,2023-09-14 03:03:10,15.08849587,0.0001174,53.2168,142.9595,83.3436,276.769,9.2227e-05,1.181e-05,0.0,0 STARLINK-5410,1 54807U 22175BB  23257.12721046  .00001181  00000-0  92227-4 0  9990,2 54807  53.2168 142.9595 0001174  83.3436 276.7690 15.08849587 43128,6917.851,95.437,540.528,538.904,0.0
54807.0,STARLINK-5410,PAYLOAD,2023-09-14 20:32:27,15.08830956,0.0001504,53.2176,139.6923,102.5614,257.5546,-9.1566e-05,-1.745e-05,0.0,0 STARLINK-5410,1 54807U 22175BB  23257.85587034 -.00001745  00000-0 -91566-4 0  9990,2 54807  53.2176 139.6923 0001504 102.5614 257.5546 15.08830956 43233,6917.908,95.438,540.813,538.733,0.0
54807.0,STARLINK-5410,PAYLOAD,2023-09-15 01:18:36,15.08838364,0.0001356,53.2169,138.7959,93.1641,266.9506,-5.0064e-05,-1.085e-05,0.0,0 STARLINK-5410,1 54807U 22175BB  23258.05458465 -.00001085  00000-0 -50064-4 0  9993,2 54807  53.2169 138.7959 0001356  93.1641 266.9506 15.08838364 41109,6917.885,95.438,540.688,538.812,0.0
54807.0,STARLINK-5410,PAYLOAD,2023-09-16 01:09:21,15.08855416,0.0001203,53.2166,134.336,86.8604,273.2526,0.00016965,2.414e-05,0.0,0 STARLINK-5410,1 54807U 22175BB  23259.04816954  .00002414  00000-0  16965-3 0  9990,2 54807  53.2166 134.3360 0001203  86.8604 273.2526 15.08855416 41259,6917.833,95.437,540.53,538.866,0.0
54807.0,STARLINK-5410,PAYLOAD,2023-09-17 01:00:10,15.08840085,0.0001272,53.2157,129.8748,86.1753,273.9384,0.00014565,2.031e-05,0.0,0 STARLINK-5410,1 54807U 22175BB  23260.04178591  .00002031  00000-0  14565-3 0  9999,2 54807  53.2157 129.8748 0001272  86.1753 273.9384 15.08840085 41404,6917.88,95.438,540.625,538.865,0.0
54807.0,STARLINK-5410,PAYLOAD,2023-09-18 00:50:57,15.08850937,0.0001314,53.2154,125.4135,84.0505,276.0637,0.00030614,4.589e-05,0.0,0 STARLINK-5410,1 54807U 22175BB  23261.03538295  .00004589  00000-0  30614-3 0  9993,2 54807  53.2154 125.4135 0001314  84.0505 276.0637 15.08850937 43710,6917.847,95.437,540.621,538.803,0.0
54807.0,STARLINK-5410,PAYLOAD,2023-09-18 21:30:57,15.08851733,0.0001317,53.2157,121.5465,87.8163,272.298,0.00037019,5.61e-05,0.0,0 STARLINK-5410,1 54807U 22175BB  23261.89650279  .00005610  00000-0  37019-3 0  9996,2 54807  53.2157 121.5465 0001317  87.8163 272.2980 15.08851733 43848,6917.845,95.437,540.621,538.798,0.0
54807.0,STARLINK-5410,PAYLOAD,2023-09-18 23:06:20,15.08856435,0.0001291,53.2157,121.2496,85.4144,274.6995,0.00044378,6.785e-05,0.0,0 STARLINK-5410,1 54807U 22175BB  23261.96274093  .00006785  00000-0  44378-3 0  9990,2 54807  53.2157 121.2496 0001291  85.4144 274.6995 15.08856435 41690,6917.83,95.437,540.588,538.802,0.0
54807.0,STARLINK-5410,PAYLOAD,2023-09-19 18:10:59,15.08828892,9.68e-05,53.2156,117.6845,64.9675,295.1417,0.00047745,7.317e-05,0.0,0 STARLINK-5410,1 54807U 22175BB  23262.75763331  .00007317  00000-0  47745-3 0  9999,2 54807  53.2156 117.6845 0000968  64.9675 295.1417 15.08828892 41814,6917.914,95.438,540.449,539.11,0.0
54807.0,STARLINK-5410,PAYLOAD,2023-09-20 00:32:31,15.08842905,0.0001346,53.2153,116.4925,100.784,259.3303,8.0517e-05,9.94e-06,0.0,0 STARLINK-5410,1 54807U 22175BB  23263.02258461  .00000994  00000-0  80517-4 0  9992,2 54807  53.2153 116.4925 0001346 100.7840 259.3303 15.08842905 41852,6917.872,95.437,540.668,538.805,0.0
54807.0,STARLINK-5410,PAYLOAD,2023-09-20 18:01:46,15.08832428,0.0001576,53.2155,113.2191,115.9239,244.1916,-8.6842e-05,-1.67e-05,0.0,0 STARLINK-5410,1 54807U 22175BB  23263.75123111 -.00001670  00000-0 -86842-4 0  9996,2 54807  53.2155 113.2191 0001576 115.9239 244.1916 15.08832428 41962,6917.904,95.438,540.859,538.678,0.0
54807.0,STARLINK-5410,PAYLOAD,2023-09-20 21:12:32,15.08834903,0.0001307,53.2156,112.6263,98.5914,261.5226,-6.1424e-05,-1.265e-05,0.0,0 STARLINK-5410,1 54807U 22175BB  23263.88371131 -.00001265  00000-0 -61424-4 0  9996,2 54807  53.2156 112.6263 0001307  98.5914 261.5226 15.08834903 44144,6917.896,95.438,540.665,538.857,0.0
54807.0,STARLINK-5410,PAYLOAD,2023-09-20 22:47:55,15.08836093,0.0001277,53.2157,112.3292,94.6988,265.415,-3.279e-05,-8.1e-06,0.0,0 STARLINK-5410,1 54807U 22175BB  23263.94995123 -.00000810  00000-0 -32790-4 0  9995,2 54807  53.2157 112.3292 0001277  94.6988 265.4150 15.08836093 44150,6917.892,95.438,540.641,538.874,0.0
54807.0,STARLINK-5410,PAYLOAD,2023-09-21 21:03:19,15.08840073,0.0001255,53.216,108.1659,98.6227,261.4907,0.00018566,2.668e-05,0.0,0 STARLINK-5410,1 54807U 22175BB  23264.87731414  .00002668  00000-0  18566-3 0  9994,2 54807  53.2160 108.1659 0001255  98.6227 261.4907 15.08840073 44294,6917.88,95.438,540.613,538.877,0.0
54807.0,STARLINK-5410,PAYLOAD,2023-09-22 00:14:06,15.08844116,0.0001299,53.2165,107.5707,100.0062,260.1077,0.00021902,3.2e-05,0.0,0 STARLINK-5410,1 54807U 22175BB  23265.00979277  .00003200  00000-0  21902-3 0  9992,2 54807  53.2165 107.5707 0001299 100.0062 260.1077 15.08844116 42158,6917.868,95.437,540.631,538.834,0.0
54807.0,STARLINK-5410,PAYLOAD,2023-09-22 20:54:06,15.08851025,0.0001232,53.216,103.7045,85.6544,274.4589,0.00029091,4.346e-05,0.0,0 STARLINK-5410,1 54807U 22175BB  23265.87090980  .00004346  00000-0  29091-3 0  9991,2 54807  53.2160 103.7045 0001232  85.6544 274.4589 15.08851025 44443,6917.847,95.437,540.564,538.859,0.0
54807.0,STARLINK-5410,PAYLOAD,2023-09-23 12:47:57,15.08842446,0.0001167,53.2159,100.7354,104.3536,255.7586,3.5624e-05,2.79e-06,0.0,0 STARLINK-5410,1 54807U 22175BB  23266.53330954  .00000279  00000-0  35624-4 0  9994,2 54807  53.2159 100.7354 0001167 104.3536 255.7586 15.08842446 42385,6917.873,95.437,540.545,538.931,0.0
54807.0,STARLINK-5410,PAYLOAD,2023-09-23 19:09:30,15.08843099,0.0001142,53.2159,99.5435,94.295,265.8172,3.6454e-05,2.92e-06,0.0,0 STARLINK-5410,1 54807U 22175BB  23266.79827250  .00000292  00000-0  36454-4 0  9999,2 54807  53.2159  99.5435 0001142  94.2950 265.8172 15.08843099 44582,6917.871,95.437,540.526,538.946,0.0
